<?xml version="1.0" encoding="UTF-8"?>
<ndm xmlns:xsi="http://www.w3.org/2001/XMLSchema-instance" xsi:noNamespaceSchemaLocation="https://sanaregistry.org/r/ndmxml_unqualified/ndmxml-2.0.0-master-2.0.xsd">
<omm id="CCSDS_OMM_VERS" version="2.0">
<header><CREATION_DATE/><ORIGINATOR/></header><body><segment><metadata><OBJECT_NAME>IRIDIUM 106</OBJECT_NAME><OBJECT_ID>2017-003A</OBJECT_ID><CENTER_NAME>EARTH</CENTER_NAME><REF_FRAME>TEME</REF_FRAME><TIME_SYSTEM>UTC</TIME_SYSTEM><MEAN_ELEMENT_THEORY>SGP4</MEAN_ELEMENT_THEORY></metadata><data><meanElements><EPOCH>2024-04-18T09:15:18.533952</EPOCH><MEAN_MOTION>14.34219219</MEAN_MOTION><ECCENTRICITY>.0005222</ECCENTRICITY><INCLINATION>86.3989</INCLINATION><RA_OF_ASC_NODE>58.5709</RA_OF_ASC_NODE><ARG_OF_PERICENTER>49.1649</ARG_OF_PERICENTER><MEAN_ANOMALY>310.9999</MEAN_ANOMALY></meanElements><tleParameters><EPHEMERIS_TYPE>0</EPHEMERIS_TYPE><CLASSIFICATION_TYPE>U</CLASSIFICATION_TYPE><NORAD_CAT_ID>41917</NORAD_CAT_ID><ELEMENT_SET_NO>999</ELEMENT_SET_NO><REV_AT_EPOCH>38000</REV_AT_EPOCH><BSTAR>.31182E-3</BSTAR><MEAN_MOTION_DOT>.893E-5</MEAN_MOTION_DOT><MEAN_MOTION_DDOT>0</MEAN_MOTION_DDOT></tleParameters></data></segment></body></omm>
<omm id="CCSDS_OMM_VERS" version="2.0">
<header><CREATION_DATE/><ORIGINATOR/></header><body><segment><metadata><OBJECT_NAME>IRIDIUM 103</OBJECT_NAME><OBJECT_ID>2017-003B</OBJECT_ID><CENTER_NAME>EARTH</CENTER_NAME><REF_FRAME>TEME</REF_FRAME><TIME_SYSTEM>UTC</TIME_SYSTEM><MEAN_ELEMENT_THEORY>SGP4</MEAN_ELEMENT_THEORY></metadata><data><meanElements><EPOCH>2024-04-18T08:57:01.920960</EPOCH><MEAN_MOTION>14.34220281</MEAN_MOTION><ECCENTRICITY>.0002668</ECCENTRICITY><INCLINATION>86.3972</INCLINATION><RA_OF_ASC_NODE>58.4814</RA_OF_ASC_NODE><ARG_OF_PERICENTER>89.3264</ARG_OF_PERICENTER><MEAN_ANOMALY>270.8237</MEAN_ANOMALY></meanElements><tleParameters><EPHEMERIS_TYPE>0</EPHEMERIS_TYPE><CLASSIFICATION_TYPE>U</CLASSIFICATION_TYPE><NORAD_CAT_ID>41918</NORAD_CAT_ID><ELEMENT_SET_NO>999</ELEMENT_SET_NO><REV_AT_EPOCH>38002</REV_AT_EPOCH><BSTAR>.6286E-4</BSTAR><MEAN_MOTION_DOT>.196E-5</MEAN_MOTION_DOT><MEAN_MOTION_DDOT>0</MEAN_MOTION_DDOT></tleParameters></data></segment></body></omm>
<omm id="CCSDS_OMM_VERS" version="2.0">
<header><CREATION_DATE/><ORIGINATOR/></header><body><segment><metadata><OBJECT_NAME>IRIDIUM 109</OBJECT_NAME><OBJECT_ID>2017-003C</OBJECT_ID><CENTER_NAME>EARTH</CENTER_NAME><REF_FRAME>TEME</REF_FRAME><TIME_SYSTEM>UTC</TIME_SYSTEM><MEAN_ELEMENT_THEORY>SGP4</MEAN_ELEMENT_THEORY></metadata><data><meanElements><EPOCH>2024-04-18T09:06:10.058976</EPOCH><MEAN_MOTION>14.34220459</MEAN_MOTION><ECCENTRICITY>.0002402</ECCENTRICITY><INCLINATION>86.3974</INCLINATION><RA_OF_ASC_NODE>58.5256</RA_OF_ASC_NODE><ARG_OF_PERICENTER>92.3342</ARG_OF_PERICENTER><MEAN_ANOMALY>267.8129</MEAN_ANOMALY></meanElements><tleParameters><EPHEMERIS_TYPE>0</EPHEMERIS_TYPE><CLASSIFICATION_TYPE>U</CLASSIFICATION_TYPE><NORAD_CAT_ID>41919</NORAD_CAT_ID><ELEMENT_SET_NO>999</ELEMENT_SET_NO><REV_AT_EPOCH>37999</REV_AT_EPOCH><BSTAR>.28363E-3</BSTAR><MEAN_MOTION_DOT>.814E-5</MEAN_MOTION_DOT><MEAN_MOTION_DDOT>0</MEAN_MOTION_DDOT></tleParameters></data></segment></body></omm>
<omm id="CCSDS_OMM_VERS" version="2.0">
<header><CREATION_DATE/><ORIGINATOR/></header><body><segment><metadata><OBJECT_NAME>IRIDIUM 102</OBJECT_NAME><OBJECT_ID>2017-003D</OBJECT_ID><CENTER_NAME>EARTH</CENTER_NAME><REF_FRAME>TEME</REF_FRAME><TIME_SYSTEM>UTC</TIME_SYSTEM><MEAN_ELEMENT_THEORY>SGP4</MEAN_ELEMENT_THEORY></metadata><data><meanElements><EPOCH>2024-04-18T08:20:29.850144</EPOCH><MEAN_MOTION>14.34218889</MEAN_MOTION><ECCENTRICITY>.0002313</ECCENTRICITY><INCLINATION>86.3971</INCLINATION><RA_OF_ASC_NODE>58.4790</RA_OF_ASC_NODE><ARG_OF_PERICENTER>89.9793</ARG_OF_PERICENTER><MEAN_ANOMALY>270.1668</MEAN_ANOMALY></meanElements><tleParameters><EPHEMERIS_TYPE>0</EPHEMERIS_TYPE><CLASSIFICATION_TYPE>U</CLASSIFICATION_TYPE><NORAD_CAT_ID>41920</NORAD_CAT_ID><ELEMENT_SET_NO>999</ELEMENT_SET_NO><REV_AT_EPOCH>38007</REV_AT_EPOCH><BSTAR>.32293E-3</BSTAR><MEAN_MOTION_DOT>.924E-5</MEAN_MOTION_DOT><MEAN_MOTION_DDOT>0</MEAN_MOTION_DDOT></tleParameters></data></segment></body></omm>
<omm id="CCSDS_OMM_VERS" version="2.0">
<header><CREATION_DATE/><ORIGINATOR/></header><body><segment><metadata><OBJECT_NAME>IRIDIUM 105</OBJECT_NAME><OBJECT_ID>2017-003E</OBJECT_ID><CENTER_NAME>EARTH</CENTER_NAME><REF_FRAME>TEME</REF_FRAME><TIME_SYSTEM>UTC</TIME_SYSTEM><MEAN_ELEMENT_THEORY>SGP4</MEAN_ELEMENT_THEORY></metadata><data><meanElements><EPOCH>2024-04-18T07:38:19.126752</EPOCH><MEAN_MOTION>14.34211248</MEAN_MOTION><ECCENTRICITY>.0002233</ECCENTRICITY><INCLINATION>86.4023</INCLINATION><RA_OF_ASC_NODE>26.9230</RA_OF_ASC_NODE><ARG_OF_PERICENTER>86.1247</ARG_OF_PERICENTER><MEAN_ANOMALY>274.0204</MEAN_ANOMALY></meanElements><tleParameters><EPHEMERIS_TYPE>0</EPHEMERIS_TYPE><CLASSIFICATION_TYPE>U</CLASSIFICATION_TYPE><NORAD_CAT_ID>41921</NORAD_CAT_ID><ELEMENT_SET_NO>999</ELEMENT_SET_NO><REV_AT_EPOCH>38192</REV_AT_EPOCH><BSTAR>.32472E-4</BSTAR><MEAN_MOTION_DOT>.111E-5</MEAN_MOTION_DOT><MEAN_MOTION_DDOT>0</MEAN_MOTION_DDOT></tleParameters></data></segment></body></omm>
<omm id="CCSDS_OMM_VERS" version="2.0">
<header><CREATION_DATE/><ORIGINATOR/></header><body><segment><metadata><OBJECT_NAME>IRIDIUM 104</OBJECT_NAME><OBJECT_ID>2017-003F</OBJECT_ID><CENTER_NAME>EARTH</CENTER_NAME><REF_FRAME>TEME</REF_FRAME><TIME_SYSTEM>UTC</TIME_SYSTEM><MEAN_ELEMENT_THEORY>SGP4</MEAN_ELEMENT_THEORY></metadata><data><meanElements><EPOCH>2024-04-18T08:38:46.248000</EPOCH><MEAN_MOTION>14.34218167</MEAN_MOTION><ECCENTRICITY>.0002341</ECCENTRICITY><INCLINATION>86.3972</INCLINATION><RA_OF_ASC_NODE>58.5041</RA_OF_ASC_NODE><ARG_OF_PERICENTER>89.5662</ARG_OF_PERICENTER><MEAN_ANOMALY>270.5802</MEAN_ANOMALY></meanElements><tleParameters><EPHEMERIS_TYPE>0</EPHEMERIS_TYPE><CLASSIFICATION_TYPE>U</CLASSIFICATION_TYPE><NORAD_CAT_ID>41922</NORAD_CAT_ID><ELEMENT_SET_NO>999</ELEMENT_SET_NO><REV_AT_EPOCH>38006</REV_AT_EPOCH><BSTAR>-.2091E-3</BSTAR><MEAN_MOTION_DOT>-.566E-5</MEAN_MOTION_DOT><MEAN_MOTION_DDOT>0</MEAN_MOTION_DDOT></tleParameters></data></segment></body></omm>
<omm id="CCSDS_OMM_VERS" version="2.0">
<header><CREATION_DATE/><ORIGINATOR/></header><body><segment><metadata><OBJECT_NAME>IRIDIUM 114</OBJECT_NAME><OBJECT_ID>2017-003G</OBJECT_ID><CENTER_NAME>EARTH</CENTER_NAME><REF_FRAME>TEME</REF_FRAME><TIME_SYSTEM>UTC</TIME_SYSTEM><MEAN_ELEMENT_THEORY>SGP4</MEAN_ELEMENT_THEORY></metadata><data><meanElements><EPOCH>2024-04-18T08:47:54.040416</EPOCH><MEAN_MOTION>14.34218995</MEAN_MOTION><ECCENTRICITY>.0002098</ECCENTRICITY><INCLINATION>86.3972</INCLINATION><RA_OF_ASC_NODE>58.4881</RA_OF_ASC_NODE><ARG_OF_PERICENTER>80.7548</ARG_OF_PERICENTER><MEAN_ANOMALY>279.3885</MEAN_ANOMALY></meanElements><tleParameters><EPHEMERIS_TYPE>0</EPHEMERIS_TYPE><CLASSIFICATION_TYPE>U</CLASSIFICATION_TYPE><NORAD_CAT_ID>41923</NORAD_CAT_ID><ELEMENT_SET_NO>999</ELEMENT_SET_NO><REV_AT_EPOCH>38004</REV_AT_EPOCH><BSTAR>.45807E-4</BSTAR><MEAN_MOTION_DOT>.148E-5</MEAN_MOTION_DOT><MEAN_MOTION_DDOT>0</MEAN_MOTION_DDOT></tleParameters></data></segment></body></omm>
<omm id="CCSDS_OMM_VERS" version="2.0">
<header><CREATION_DATE/><ORIGINATOR/></header><body><segment><metadata><OBJECT_NAME>IRIDIUM 108</OBJECT_NAME><OBJECT_ID>2017-003H</OBJECT_ID><CENTER_NAME>EARTH</CENTER_NAME><REF_FRAME>TEME</REF_FRAME><TIME_SYSTEM>UTC</TIME_SYSTEM><MEAN_ELEMENT_THEORY>SGP4</MEAN_ELEMENT_THEORY></metadata><data><meanElements><EPOCH>2024-04-18T07:48:10.285920</EPOCH><MEAN_MOTION>14.34218292</MEAN_MOTION><ECCENTRICITY>.0002154</ECCENTRICITY><INCLINATION>86.4018</INCLINATION><RA_OF_ASC_NODE>26.8484</RA_OF_ASC_NODE><ARG_OF_PERICENTER>80.0506</ARG_OF_PERICENTER><MEAN_ANOMALY>280.0932</MEAN_ANOMALY></meanElements><tleParameters><EPHEMERIS_TYPE>0</EPHEMERIS_TYPE><CLASSIFICATION_TYPE>U</CLASSIFICATION_TYPE><NORAD_CAT_ID>41924</NORAD_CAT_ID><ELEMENT_SET_NO>999</ELEMENT_SET_NO><REV_AT_EPOCH>38189</REV_AT_EPOCH><BSTAR>.12007E-4</BSTAR><MEAN_MOTION_DOT>.53E-6</MEAN_MOTION_DOT><MEAN_MOTION_DDOT>0</MEAN_MOTION_DDOT></tleParameters></data></segment></body></omm>

</ndm>
