IRIDIUM 106             
1 41917U 17003A   24109.38563118  .00000893  00000+0  31182-3 0  9991
2 41917  86.3989  58.5709 0005222  49.1649 310.9999 14.34219219380002
IRIDIUM 103             
1 41918U 17003B   24109.37293890  .00000196  00000+0  62860-4 0  9992
2 41918  86.3972  58.4814 0002668  89.3264 270.8237 14.34220281380023
IRIDIUM 109             
1 41919U 17003C   24109.37928309  .00000814  00000+0  28363-3 0  9999
2 41919  86.3974  58.5256 0002402  92.3342 267.8129 14.34220459379991
IRIDIUM 102             
1 41920U 17003D   24109.34756771  .00000924  00000+0  32293-3 0  9999
2 41920  86.3971  58.4790 0002313  89.9793 270.1668 14.34218889380075
IRIDIUM 105             
1 41921U 17003E   24109.31827693  .00000111  00000+0  32472-4 0  9997
2 41921  86.4023  26.9230 0002233  86.1247 274.0204 14.34211248381924
IRIDIUM 104             
1 41922U 17003F   24109.36025750 -.00000566  00000+0 -20910-3 0  9996
2 41922  86.3972  58.5041 0002341  89.5662 270.5802 14.34218167380062
IRIDIUM 114             
1 41923U 17003G   24109.36659769  .00000148  00000+0  45807-4 0  9997
2 41923  86.3972  58.4881 0002098  80.7548 279.3885 14.34218995380044
IRIDIUM 108             
1 41924U 17003H   24109.32511905  .00000053  00000+0  12007-4 0  9994
2 41924  86.4018  26.8484 0002154  80.0506 280.0932 14.34218292381891
